{
"type": "FeatureCollection",
"name": "old sangvi",
"crs": { "type": "name", "properties": { "name": "urn:ogc:def:crs:OGC:1.3:CRS84" } },
"features": [
{ "type": "Feature", "properties": { "id": 1 }, "geometry": { "type": "MultiPolygon", "coordinates": [ [ [ [ 73.806710084523445, 18.573617382335218 ], [ 73.807833355025906, 18.573897583462632 ], [ 73.808345724027021, 18.575018383367595 ], [ 73.809370462029293, 18.575410661593715 ], [ 73.811144047033196, 18.575802938917256 ], [ 73.811912600534882, 18.576139175904775 ], [ 73.812523502036242, 18.57615785571797 ], [ 73.812996458037276, 18.575952377660244 ], [ 73.813213229537766, 18.575709539636382 ], [ 73.813745305038935, 18.575578780557183 ], [ 73.814513858540622, 18.575448021377692 ], [ 73.815045934041791, 18.575279902285292 ], [ 73.815893313543668, 18.575317262097933 ], [ 73.817036290546184, 18.575522740921109 ], [ 73.817903376548088, 18.575746899354868 ], [ 73.818612810549652, 18.575971057493902 ], [ 73.819282831551135, 18.576120496089533 ], [ 73.819834613552331, 18.576213895145273 ], [ 73.819933146052549, 18.576382013316675 ], [ 73.82038639555357, 18.576456732450751 ], [ 73.820918471054725, 18.576606170620646 ], [ 73.821391427055772, 18.576456732450751 ], [ 73.821824970056738, 18.576232574950293 ], [ 73.822219100057595, 18.575989737325521 ], [ 73.822711762558683, 18.575690859774063 ], [ 73.82318471855973, 18.575448021377692 ], [ 73.823972978561471, 18.575186502717873 ], [ 73.824682412563035, 18.575261222375904 ], [ 73.825096249063932, 18.575466701266624 ], [ 73.825588911565035, 18.57578425906517 ], [ 73.826199813066367, 18.576008417155094 ], [ 73.826791008067659, 18.576120496089533 ], [ 73.827263964068706, 18.576232574950293 ], [ 73.827874865570067, 18.576307294149853 ], [ 73.828308408571033, 18.576232574950293 ], [ 73.828761658071997, 18.576008417155094 ], [ 73.829076962072719, 18.575634820174827 ], [ 73.829244467323079, 18.575214522593477 ], [ 73.829510505073671, 18.574728844097958 ], [ 73.829835662324399, 18.574252504229673 ], [ 73.830190379325174, 18.573804183137991 ], [ 73.830692895076282, 18.57338388104397 ], [ 73.831096878327173, 18.57315971950354 ], [ 73.831372769327785, 18.573028958468871 ], [ 73.831185557577371, 18.572580634160165 ], [ 73.830939226326819, 18.57219768954641 ], [ 73.830732308076364, 18.571852104644552 ], [ 73.830535243075943, 18.571324385808023 ], [ 73.830348031325528, 18.570670572595173 ], [ 73.830091846824971, 18.570054117841504 ], [ 73.829796249324303, 18.569484362224106 ], [ 73.829520358323691, 18.569166792693206 ], [ 73.829136081572855, 18.568867903182799 ], [ 73.828712391821909, 18.568606374431535 ], [ 73.828131050070652, 18.568503630883811 ], [ 73.827530001819298, 18.568447588922613 ], [ 73.82708660556834, 18.568522311533457 ], [ 73.826544676817122, 18.568578353470112 ], [ 73.825766270065444, 18.568849222571011 ], [ 73.824928743813587, 18.569036028596866 ], [ 73.824376961812362, 18.569232174703792 ], [ 73.823884299311288, 18.569390959482288 ], [ 73.823450756310336, 18.569521723306508 ], [ 73.822504844308241, 18.569699188336173 ], [ 73.822130420807412, 18.569717868854866 ], [ 73.821352014055719, 18.569764570142649 ], [ 73.82060316705406, 18.569717868854866 ], [ 73.820110504552972, 18.569643146767802 ], [ 73.819676961551991, 18.569605785712 ], [ 73.818701489799864, 18.569484362224106 ], [ 73.817854110298015, 18.569344258092187 ], [ 73.817006730796138, 18.569213494131894 ], [ 73.816119938294193, 18.569026688300426 ], [ 73.815262705542295, 18.568839882264349 ], [ 73.814622244290888, 18.568746479169587 ], [ 73.813912810289324, 18.568597034111573 ], [ 73.813498973788398, 18.568456929250754 ], [ 73.812888072287052, 18.568326164610156 ], [ 73.812622034536474, 18.568298143602703 ], [ 73.811952013535006, 18.568270122590643 ], [ 73.811646562784318, 18.568279462928508 ], [ 73.811626856284292, 18.568569013148611 ], [ 73.811597296534231, 18.568760489637057 ], [ 73.81153817703408, 18.568956636060875 ], [ 73.811262286033497, 18.569213494131894 ], [ 73.811035661283, 18.569316237251993 ], [ 73.810754843657392, 18.569381619205284 ], [ 73.810336080531457, 18.569489032359854 ], [ 73.810326227281436, 18.569489032359854 ], [ 73.810030629780798, 18.569582435047966 ], [ 73.809725179030124, 18.569657157161622 ], [ 73.809409875029417, 18.569764570142659 ], [ 73.809198030153965, 18.56994203491962 ], [ 73.808853166403196, 18.570511789008048 ], [ 73.808114172651571, 18.571616265897323 ], [ 73.807572243900353, 18.572382156876248 ], [ 73.807128847649395, 18.572942562730248 ], [ 73.806783983898626, 18.573372205971026 ], [ 73.806695304648443, 18.573484286638411 ], [ 73.806710084523445, 18.573617382335218 ] ] ] ] } }
]
}
